      2.10          N: GNSS NAV DATA                        RINEX VERSION / TYPE
fic2rin                                 04/06/2024 00:59:03 PGM / RUN BY / DATE
                                                            END OF HEADER
8  24  4  5  1 59 44.0  .101994723082D-03  .242152964347D-10  .000000000000D+00
     .200000000000D+01 -.110937500000D+02  .470412451710D-08  .565866150345D+00
    -.534579157829D-06  .945698749274D-02  .891648232937D-05  .515361085701D+04
     .439184000000D+06  .875443220139D-07  .194188962405D+01  .128522515297D-06
     .953679542089D+00  .203968750000D+03  .348217679430D+00 -.821427072878D-08
    -.548951437459D-09  .100000000000D+01  .230800000000D+04  .000000000000D+00
     .240000000000D+01  .000000000000D+00  .465661287308D-08  .200000000000D+01
     .432000000000D+06  .400000000000D+01
12 24  4  5  8  0  0.0 -.493730884045D-03 -.352429196937D-11  .000000000000D+00
     .570000000000D+02  .261250000000D+02  .494556314541D-08  .154877729725D+00
     .130385160446D-05  .894143187907D-02  .515766441822D-05  .515366586876D+04
     .460800000000D+06 -.182539224625D-06  .996036741957D+00  .242143869400D-07
     .962761524779D+00  .281625000000D+03  .143374712704D+01 -.843035115796D-08
    -.246438836595D-10  .100000000000D+01  .230800000000D+04  .000000000000D+00
     .240000000000D+01  .000000000000D+00 -.125728547573D-07  .570000000000D+02
     .453600000000D+06  .400000000000D+01
7  24  4  5  8  0  0.0 -.100337900221D-03 -.864019966684D-11  .000000000000D+00
     .700000000000D+02  .182812500000D+02  .479698552799D-08  .878588926995D+00
     .120699405670D-05  .182807106758D-01  .122375786304D-04  .515365668297D+04
     .460800000000D+06 -.264495611191D-06 -.119195917217D+00  .949949026108D-07
     .950757917672D+00  .145531250000D+03 -.213697595708D+01 -.835070498324D-08
     .138577200868D-09  .100000000000D+01  .230800000000D+04  .000000000000D+00
     .240000000000D+01  .000000000000D+00 -.111758708954D-07  .700000000000D+02
     .453600000000D+06  .400000000000D+01
6  24  4  5  8  0  0.0  .336392782629D-03 -.175077730091D-10  .000000000000D+00
     .710000000000D+02  .866250000000D+02  .355264798205D-08  .174685477110D+01
     .456348061562D-05  .308910931926D-02  .100359320641D-04  .515359728813D+04
     .460800000000D+06  .745058059692D-07  .303529748092D+01  .102445483208D-06
     .990047433918D+00  .200000000000D+03 -.710843688761D+00 -.760353100330D-08
     .261082303697D-09  .100000000000D+01  .230800000000D+04  .000000000000D+00
     .240000000000D+01  .000000000000D+00  .419095158577D-08  .710000000000D+02
     .453600000000D+06  .400000000000D+01
4  24  4  5  8  0  0.0  .331570859998D-03  .886757334229D-11  .000000000000D+00
     .960000000000D+02 -.105625000000D+03  .450911639423D-08 -.285743530397D+01
    -.548735260963D-05  .280676281545D-02  .813789665699D-05  .515377196884D+04
     .460800000000D+06 -.707805156708D-07 -.113226297130D+01 -.204890966415D-07
     .964353148928D+00  .227968750000D+03 -.294844765820D+01 -.807497921244D-08
    -.269296931584D-09  .100000000000D+01  .230800000000D+04  .000000000000D+00
     .240000000000D+01  .000000000000D+00 -.465661287308D-08  .960000000000D+02
     .453600000000D+06  .400000000000D+01
9  24  4  5  8  0  0.0  .149323139340D-03  .135287336889D-10  .000000000000D+00
     .740000000000D+02 -.109062500000D+03  .476126975457D-08 -.211940263902D+01
    -.561773777008D-05  .267947115935D-02  .787153840065D-05  .515369559097D+04
     .460800000000D+06 -.130385160446D-07 -.119140504221D+01  .800937414169D-07
     .957864364084D+00  .228781250000D+03  .200879029854D+01 -.819319842246D-08
    -.277868717205D-09  .100000000000D+01  .230800000000D+04  .000000000000D+00
     .240000000000D+01  .000000000000D+00  .931322574615D-09  .740000000000D+02
     .453600000000D+06  .400000000000D+01
10 24  4  5  8  0  0.0 -.556325539947D-05 -.375166564481D-11  .000000000000D+00
     .173000000000D+03  .271562500000D+02  .447304346307D-08 -.573136644002D+00
     .158324837685D-05  .930109177716D-02  .271759927273D-05  .515368387222D+04
     .460800000000D+06 -.186264514923D-08 -.221429624365D+01  .214204192162D-06
     .983169624047D+00  .339093750000D+03 -.236726807493D+01 -.843642283945D-08
     .265368196508D-09  .100000000000D+01  .230800000000D+04  .000000000000D+00
     .240000000000D+01  .000000000000D+00  .232830643654D-08  .173000000000D+03
     .453600000000D+06  .400000000000D+01
11 24  4  5  8  0  0.0 -.627628527582D-03 -.109139364213D-10  .000000000000D+00
     .180000000000D+02  .101406250000D+03  .403552523868D-08  .297996424743D+01
     .535137951374D-05  .122076610569D-02  .987760722637D-05  .515369328499D+04
     .460800000000D+06  .614672899246D-07  .306949924896D+01 -.167638063431D-07
     .966523379121D+00  .192281250000D+03 -.252042968764D+01 -.791211528565D-08
     .343942898031D-09  .100000000000D+01  .230800000000D+04  .000000000000D+00
     .240000000000D+01  .000000000000D+00 -.838190317154D-08  .530000000000D+03
     .453600000000D+06  .400000000000D+01
31 24  4  5  8  0  0.0 -.228036195040D-03  .000000000000D+00  .000000000000D+00
     .900000000000D+02  .387500000000D+01  .462876423518D-08  .184497405743D-01
     .359490513802D-06  .105027621612D-01  .116713345051D-04  .515370512962D+04
     .460800000000D+06  .540167093277D-07 -.979308098170D-01  .100582838058D-06
     .954755276955D+00  .150656250000D+03  .667035035704D+00 -.812998150351D-08
     .258225041824D-09  .100000000000D+01  .230800000000D+04  .000000000000D+00
     .240000000000D+01  .000000000000D+00 -.130385160446D-07  .900000000000D+02
     .453600000000D+06  .400000000000D+01
24 24  4  5  8  0  0.0 -.455601140857D-03 -.466116034659D-11  .000000000000D+00
     .580000000000D+02 -.968750000000D+01  .499592238593D-08  .191070295796D+01
    -.646337866783D-06  .151653366629D-01  .129826366901D-04  .515372739220D+04
     .460800000000D+06 -.309199094772D-06 -.215289009343D+00 -.203028321266D-06
     .934395282823D+00  .115312500000D+03  .972524779641D+00 -.813498171178D-08
     .344300055765D-09  .100000000000D+01  .230800000000D+04  .000000000000D+00
     .240000000000D+01  .000000000000D+00  .232830643654D-08  .580000000000D+02
     .453600000000D+06  .400000000000D+01
27 24  4  5  8  0  0.0 -.166734680533D-04 -.250111042988D-11  .000000000000D+00
     .830000000000D+02 -.418125000000D+02  .436625330055D-08 -.247363043357D+01
    -.218860805035D-05  .125560162123D-01  .882893800735D-05  .515367709351D+04
     .460800000000D+06  .372529029846D-08  .196774311548D+01 -.106170773506D-06
     .962672980199D+00  .209750000000D+03  .778894174446D+00 -.785568436364D-08
    -.445375694543D-09  .100000000000D+01  .230800000000D+04  .000000000000D+00
     .240000000000D+01  .000000000000D+00  .186264514923D-08  .830000000000D+02
     .453600000000D+06  .400000000000D+01
32 24  4  5  8  0  0.0 -.617622397840D-03 -.682121026330D-12  .000000000000D+00
     .990000000000D+02 -.126562500000D+03  .459769151231D-08 -.182238841484D+01
    -.644102692604D-05  .772369094193D-02  .738725066185D-05  .515366082382D+04
     .460800000000D+06  .158324837685D-06 -.117698175543D+01 -.391155481339D-07
     .961321679844D+00  .235781250000D+03 -.214749266595D+01 -.809855162290D-08
    -.240724312848D-09  .100000000000D+01  .230800000000D+04  .000000000000D+00
     .240000000000D+01  .000000000000D+00  .931322574615D-09  .990000000000D+02
     .453600000000D+06  .400000000000D+01
29 24  4  5  8  0  0.0 -.602836720645D-03  .113686837722D-11  .000000000000D+00
     .550000000000D+02 -.205000000000D+02  .423696220077D-08 -.252125618076D+01
    -.106170773506D-05  .276247365400D-02  .101923942566D-04  .515361529732D+04
     .460800000000D+06 -.931322574615D-08  .205053836858D+01 -.931322574615D-08
     .971864939219D+00  .188125000000D+03  .249953834118D+01 -.788247119371D-08
    -.597882047044D-09  .100000000000D+01  .230800000000D+04  .000000000000D+00
     .240000000000D+01  .000000000000D+00 -.977888703346D-08  .550000000000D+02
     .453600000000D+06  .400000000000D+01
30 24  4  5  8  0  0.0 -.409753993154D-03  .545696821064D-11  .000000000000D+00
     .940000000000D+02  .221250000000D+02  .506092509356D-08  .741957100691D+00
     .139139592648D-05  .700782565400D-02  .116135925055D-04  .515366924286D+04
     .460800000000D+06 -.856816768646D-07 -.117807179325D+00  .100582838058D-06
     .935895044494D+00  .141843750000D+03 -.249750751976D+01 -.830784605514D-08
     .263225250103D-09  .100000000000D+01  .230800000000D+04  .000000000000D+00
     .240000000000D+01  .000000000000D+00  .372529029846D-08  .940000000000D+02
     .453600000000D+06  .400000000000D+01
22 24  4  5  8  0  0.0  .517722219229D-05 -.568434188608D-11  .000000000000D+00
     .720000000000D+02  .196875000000D+02  .486448833975D-08 -.201754734811D+01
     .111199915409D-05  .143793917960D-01  .487267971039D-05  .515370185089D+04
     .460800000000D+06 -.596046447754D-07  .101726873913D+01  .370666384697D-06
     .961565166466D+00  .286781250000D+03 -.113766571648D+01 -.821784230612D-08
    -.138220043134D-09  .100000000000D+01  .230800000000D+04  .000000000000D+00
     .340000000000D+01  .000000000000D+00 -.111758708954D-07  .720000000000D+02
     .453600000000D+06  .400000000000D+01
26 24  4  5  8  0  0.0  .170754734427D-03 -.488853402203D-11  .000000000000D+00
     .370000000000D+02  .452187500000D+02  .560951937328D-08 -.714919289292D+00
     .235065817833D-05  .884378468618D-02  .490993261337D-05  .515360793304D+04
     .460800000000D+06  .163912773132D-06  .848512640597D+00  .113621354103D-06
     .931558680278D+00  .268468750000D+03  .541389962631D+00 -.875750764249D-08
     .120004998690D-09  .100000000000D+01  .230800000000D+04  .000000000000D+00
     .240000000000D+01  .000000000000D+00  .698491930962D-08  .370000000000D+02
     .453600000000D+06  .400000000000D+01
